ONEWEB-0628             
1 55169U 23004AF  26125.02608010  .00000457  00000+0  12337-2 0  9991
2 55169  87.8982 359.2323 0002068 101.9631 258.1730 13.12443727162373
ONEWEB-0629             
1 55170U 23004AG  26125.13362973  .00000128  00000+0  29758-3 0  9991
2 55170  87.9173  14.4284 0002062  85.8759 274.2608 13.17648000161917
ONEWEB-0631             
1 55171U 23004AH  26125.07951757  .00000091  00000+0  19909-3 0  9995
2 55171  87.9190 344.0119 0001292  88.4841 271.6440 13.18685544163991
ONEWEB-0709             
1 55172U 23004AJ  26125.17297141  .00000390  00000+0  10643-2 0  9994
2 55172  87.8922  29.6341 0001391  49.7664 310.3585 13.11418445160232
ONEWEB-0710             
1 55173U 23004AK  26125.22391105  .00000037  00000+0  62976-4 0  9992
2 55173  87.9174  14.4057 0001729  86.3415 273.7914 13.17649942161924
ONEWEB-0711             
1 55174U 23004AL  26125.22042290 -.00000570  00000+0 -16451-2 0  9990
2 55174  87.8922  29.6108 0001752 103.7914 256.3409 13.11417915160207
ONEWEB-0713             
1 55175U 23004AM  26124.70500655  .00000107  00000+0  26538-3 0  9999
2 55175  87.8930  29.7139 0001698  91.6523 268.4799 13.11419924160121
ONEWEB-0715             
1 55176U 23004AN  26125.23399171 -.00000227  00000+0 -67655-3 0  9998
2 55176  87.8933  29.6090 0001170  66.2478 293.8772 13.11419887160235
ONEWEB-0716             
1 55177U 23004AP  26125.21716036  .00000038  00000+0  64519-4 0  9995
2 55177  87.9176  14.4087 0001987  76.6999 283.4354 13.17649396161927
ONEWEB-0717             
1 55178U 23004AQ  26125.04841677 -.00000066  00000+0 -20390-3 0  9998
2 55178  87.9185  14.4263 0001597 103.1984 256.9326 13.17648140161954
ONEWEB-0719             
1 55179U 23004AR  26125.13447464  .00000058  00000+0  11692-3 0  9999
2 55179  87.9182  14.3901 0001995  81.4762 278.6596 13.17649019161916
ONEWEB-0530             
1 55796U 23029A   26124.98482466 -.00000074  00000+0 -21317-3 0  9999
2 55796  87.9139 283.0925 0002055 109.0787 251.0569 13.20773716155448
ONEWEB-0534             
1 55797U 23029B   26124.97220841 -.00000045  00000+0 -14279-3 0  9993
2 55797  87.9143 283.0944 0001886  93.4204 266.7145 13.20770408155444
ONEWEB-0556             
1 55798U 23029C   26124.97853768 -.00000045  00000+0 -14205-3 0  9993
2 55798  87.9139 283.0939 0002657  94.2933 265.8504 13.20772188155445
ONEWEB-0562             
1 55799U 23029D   26124.89013813 -.00000110  00000+0 -30254-3 0  9999
2 55799  87.9141 283.0922 0002558 110.0473 250.0936 13.20770535155435
ONEWEB-0563             
1 55800U 23029E   26124.88382688 -.00000037  00000+0 -12294-3 0  9992
2 55800  87.9142 283.1237 0001944  90.6914 269.4442 13.20772711155423
