[{"OBJECT_NAME":"ONEWEB-0628","OBJECT_ID":"2023-004AF","EPOCH":"2026-05-05T00:37:33.320640","MEAN_MOTION":13.12443727,"ECCENTRICITY":0.0002068,"INCLINATION":87.8982,"RA_OF_ASC_NODE":359.2323,"ARG_OF_PERICENTER":101.9631,"MEAN_ANOMALY":258.173,"EPHEMERIS_TYPE":0,"CLASSIFICATION_TYPE":"U","NORAD_CAT_ID":55169,"ELEMENT_SET_NO":999,"REV_AT_EPOCH":16237,"BSTAR":0.0012337,"MEAN_MOTION_DOT":4.57e-06,"MEAN_MOTION_DDOT":0.0},{"OBJECT_NAME":"ONEWEB-0629","OBJECT_ID":"2023-004AG","EPOCH":"2026-05-05T03:12:25.608672","MEAN_MOTION":13.17648,"ECCENTRICITY":0.0002062,"INCLINATION":87.9173,"RA_OF_ASC_NODE":14.4284,"ARG_OF_PERICENTER":85.8759,"MEAN_ANOMALY":274.2608,"EPHEMERIS_TYPE":0,"CLASSIFICATION_TYPE":"U","NORAD_CAT_ID":55170,"ELEMENT_SET_NO":999,"REV_AT_EPOCH":16191,"BSTAR":0.00029758000000000003,"MEAN_MOTION_DOT":1.28e-06,"MEAN_MOTION_DDOT":0.0},{"OBJECT_NAME":"ONEWEB-0631","OBJECT_ID":"2023-004AH","EPOCH":"2026-05-05T01:54:30.318048","MEAN_MOTION":13.18685544,"ECCENTRICITY":0.0001292,"INCLINATION":87.919,"RA_OF_ASC_NODE":344.0119,"ARG_OF_PERICENTER":88.4841,"MEAN_ANOMALY":271.644,"EPHEMERIS_TYPE":0,"CLASSIFICATION_TYPE":"U","NORAD_CAT_ID":55171,"ELEMENT_SET_NO":999,"REV_AT_EPOCH":16399,"BSTAR":0.00019909,"MEAN_MOTION_DOT":9.1e-07,"MEAN_MOTION_DDOT":0.0},{"OBJECT_NAME":"ONEWEB-0709","OBJECT_ID":"2023-004AJ","EPOCH":"2026-05-05T04:09:04.729824","MEAN_MOTION":13.11418445,"ECCENTRICITY":0.0001391,"INCLINATION":87.8922,"RA_OF_ASC_NODE":29.6341,"ARG_OF_PERICENTER":49.7664,"MEAN_ANOMALY":310.3585,"EPHEMERIS_TYPE":0,"CLASSIFICATION_TYPE":"U","NORAD_CAT_ID":55172,"ELEMENT_SET_NO":999,"REV_AT_EPOCH":16023,"BSTAR":0.0010643,"MEAN_MOTION_DOT":3.9e-06,"MEAN_MOTION_DDOT":0.0},{"OBJECT_NAME":"ONEWEB-0710","OBJECT_ID":"2023-004AK","EPOCH":"2026-05-05T05:22:25.914720","MEAN_MOTION":13.17649942,"ECCENTRICITY":0.0001729,"INCLINATION":87.9174,"RA_OF_ASC_NODE":14.4057,"ARG_OF_PERICENTER":86.3415,"MEAN_ANOMALY":273.7914,"EPHEMERIS_TYPE":0,"CLASSIFICATION_TYPE":"U","NORAD_CAT_ID":55173,"ELEMENT_SET_NO":999,"REV_AT_EPOCH":16192,"BSTAR":6.2976e-05,"MEAN_MOTION_DOT":3.7e-07,"MEAN_MOTION_DDOT":0.0},{"OBJECT_NAME":"ONEWEB-0711","OBJECT_ID":"2023-004AL","EPOCH":"2026-05-05T05:17:24.538560","MEAN_MOTION":13.11417915,"ECCENTRICITY":0.0001752,"INCLINATION":87.8922,"RA_OF_ASC_NODE":29.6108,"ARG_OF_PERICENTER":103.7914,"MEAN_ANOMALY":256.3409,"EPHEMERIS_TYPE":0,"CLASSIFICATION_TYPE":"U","NORAD_CAT_ID":55174,"ELEMENT_SET_NO":999,"REV_AT_EPOCH":16020,"BSTAR":-0.0016451,"MEAN_MOTION_DOT":-5.7e-06,"MEAN_MOTION_DDOT":0.0},{"OBJECT_NAME":"ONEWEB-0713","OBJECT_ID":"2023-004AM","EPOCH":"2026-05-04T16:55:12.565920","MEAN_MOTION":13.11419924,"ECCENTRICITY":0.0001698,"INCLINATION":87.893,"RA_OF_ASC_NODE":29.7139,"ARG_OF_PERICENTER":91.6523,"MEAN_ANOMALY":268.4799,"EPHEMERIS_TYPE":0,"CLASSIFICATION_TYPE":"U","NORAD_CAT_ID":55175,"ELEMENT_SET_NO":999,"REV_AT_EPOCH":16012,"BSTAR":0.00026538,"MEAN_MOTION_DOT":1.07e-06,"MEAN_MOTION_DDOT":0.0},{"OBJECT_NAME":"ONEWEB-0715","OBJECT_ID":"2023-004AN","EPOCH":"2026-05-05T05:36:56.883744","MEAN_MOTION":13.11419887,"ECCENTRICITY":0.000117,"INCLINATION":87.8933,"RA_OF_ASC_NODE":29.609,"ARG_OF_PERICENTER":66.2478,"MEAN_ANOMALY":293.8772,"EPHEMERIS_TYPE":0,"CLASSIFICATION_TYPE":"U","NORAD_CAT_ID":55176,"ELEMENT_SET_NO":999,"REV_AT_EPOCH":16023,"BSTAR":-0.00067655,"MEAN_MOTION_DOT":-2.27e-06,"MEAN_MOTION_DDOT":0.0},{"OBJECT_NAME":"ONEWEB-0716","OBJECT_ID":"2023-004AP","EPOCH":"2026-05-05T05:12:42.655104","MEAN_MOTION":13.17649396,"ECCENTRICITY":0.0001987,"INCLINATION":87.9176,"RA_OF_ASC_NODE":14.4087,"ARG_OF_PERICENTER":76.6999,"MEAN_ANOMALY":283.4354,"EPHEMERIS_TYPE":0,"CLASSIFICATION_TYPE":"U","NORAD_CAT_ID":55177,"ELEMENT_SET_NO":999,"REV_AT_EPOCH":16192,"BSTAR":6.451900000000001e-05,"MEAN_MOTION_DOT":3.8e-07,"MEAN_MOTION_DDOT":0.0},{"OBJECT_NAME":"ONEWEB-0717","OBJECT_ID":"2023-004AQ","EPOCH":"2026-05-05T01:09:43.208928","MEAN_MOTION":13.1764814,"ECCENTRICITY":0.0001597,"INCLINATION":87.9185,"RA_OF_ASC_NODE":14.4263,"ARG_OF_PERICENTER":103.1984,"MEAN_ANOMALY":256.9326,"EPHEMERIS_TYPE":0,"CLASSIFICATION_TYPE":"U","NORAD_CAT_ID":55178,"ELEMENT_SET_NO":999,"REV_AT_EPOCH":16195,"BSTAR":-0.0002039,"MEAN_MOTION_DOT":-6.6e-07,"MEAN_MOTION_DDOT":0.0},{"OBJECT_NAME":"ONEWEB-0719","OBJECT_ID":"2023-004AR","EPOCH":"2026-05-05T03:13:38.608896","MEAN_MOTION":13.17649019,"ECCENTRICITY":0.0001995,"INCLINATION":87.9182,"RA_OF_ASC_NODE":14.3901,"ARG_OF_PERICENTER":81.4762,"MEAN_ANOMALY":278.6596,"EPHEMERIS_TYPE":0,"CLASSIFICATION_TYPE":"U","NORAD_CAT_ID":55179,"ELEMENT_SET_NO":999,"REV_AT_EPOCH":16191,"BSTAR":0.00011692,"MEAN_MOTION_DOT":5.8e-07,"MEAN_MOTION_DDOT":0.0},{"OBJECT_NAME":"ONEWEB-0530","OBJECT_ID":"2023-029A","EPOCH":"2026-05-04T23:38:08.850624","MEAN_MOTION":13.20773716,"ECCENTRICITY":0.0002055,"INCLINATION":87.9139,"RA_OF_ASC_NODE":283.0925,"ARG_OF_PERICENTER":109.0787,"MEAN_ANOMALY":251.0569,"EPHEMERIS_TYPE":0,"CLASSIFICATION_TYPE":"U","NORAD_CAT_ID":55796,"ELEMENT_SET_NO":999,"REV_AT_EPOCH":15544,"BSTAR":-0.00021317,"MEAN_MOTION_DOT":-7.4e-07,"MEAN_MOTION_DDOT":0.0},{"OBJECT_NAME":"ONEWEB-0534","OBJECT_ID":"2023-029B","EPOCH":"2026-05-04T23:19:58.806624","MEAN_MOTION":13.20770408,"ECCENTRICITY":0.0001886,"INCLINATION":87.9143,"RA_OF_ASC_NODE":283.0944,"ARG_OF_PERICENTER":93.4204,"MEAN_ANOMALY":266.7145,"EPHEMERIS_TYPE":0,"CLASSIFICATION_TYPE":"U","NORAD_CAT_ID":55797,"ELEMENT_SET_NO":999,"REV_AT_EPOCH":15544,"BSTAR":-0.00014279,"MEAN_MOTION_DOT":-4.5e-07,"MEAN_MOTION_DDOT":0.0},{"OBJECT_NAME":"ONEWEB-0556","OBJECT_ID":"2023-029C","EPOCH":"2026-05-04T23:29:05.655552","MEAN_MOTION":13.20772188,"ECCENTRICITY":0.0002657,"INCLINATION":87.9139,"RA_OF_ASC_NODE":283.0939,"ARG_OF_PERICENTER":94.2933,"MEAN_ANOMALY":265.8504,"EPHEMERIS_TYPE":0,"CLASSIFICATION_TYPE":"U","NORAD_CAT_ID":55798,"ELEMENT_SET_NO":999,"REV_AT_EPOCH":15544,"BSTAR":-0.00014205,"MEAN_MOTION_DOT":-4.5e-07,"MEAN_MOTION_DDOT":0.0},{"OBJECT_NAME":"ONEWEB-0562","OBJECT_ID":"2023-029D","EPOCH":"2026-05-04T21:21:47.934432","MEAN_MOTION":13.20770535,"ECCENTRICITY":0.0002558,"INCLINATION":87.9141,"RA_OF_ASC_NODE":283.0922,"ARG_OF_PERICENTER":110.0473,"MEAN_ANOMALY":250.0936,"EPHEMERIS_TYPE":0,"CLASSIFICATION_TYPE":"U","NORAD_CAT_ID":55799,"ELEMENT_SET_NO":999,"REV_AT_EPOCH":15543,"BSTAR":-0.00030253999999999996,"MEAN_MOTION_DOT":-1.1e-06,"MEAN_MOTION_DDOT":0.0},{"OBJECT_NAME":"ONEWEB-0563","OBJECT_ID":"2023-029E","EPOCH":"2026-05-04T21:12:42.642432","MEAN_MOTION":13.20772711,"ECCENTRICITY":0.0001944,"INCLINATION":87.9142,"RA_OF_ASC_NODE":283.1237,"ARG_OF_PERICENTER":90.6914,"MEAN_ANOMALY":269.4442,"EPHEMERIS_TYPE":0,"CLASSIFICATION_TYPE":"U","NORAD_CAT_ID":55800,"ELEMENT_SET_NO":999,"REV_AT_EPOCH":15542,"BSTAR":-0.00012293999999999999,"MEAN_MOTION_DOT":-3.7e-07,"MEAN_MOTION_DDOT":0.0}]